OSCAR 7 (AO-7)          
1 07530U 74089B   26188.51478831 -.00000046  00000+0  49488-5 0  9993
2 07530 101.9901 201.9731 0012665  92.5590  74.3678 12.53698425363069
PHASE 3B (AO-10)        
1 14129U 83058B   26187.30639496  .00000240  00000+0  00000+0 0  9999
2 14129  25.9287 216.4111 6004451 120.9204 311.3694  2.05868973295883
UOSAT 2 (UO-11)         
1 14781U 84021B   26188.35711644  .00001031  00000+0  11037-3 0  9991
2 14781  97.8070 153.7082 0009095 112.8579 247.3601 14.90835514260131
LUSAT (LO-19)           
1 20442U 90005G   26188.48462287  .00000077  00000+0  44156-4 0  9999
2 20442  98.8845 210.8490 0012233 142.4411 217.7630 14.34129180905304
EYESAT A (AO-27)        
1 22825U 93061C   26188.13790326  .00000072  00000+0  44304-4 0  9991
2 22825  98.6871 255.5434 0009160  47.8200 312.3759 14.30947627709857
ITAMSAT (IO-26)         
1 22826U 93061D   26187.69194508  .00000089  00000+0  50471-4 0  9992
2 22826  98.6820 255.0170 0009437  33.2338 326.9435 14.31375033710101
RADIO ROSTO (RS15)      
1 23439U 94085A   26188.42578286 -.00000037  00000+0  16096-3 0  9999
2 23439  64.8166 270.4858 0156635   0.1409 359.9534 11.27583445298184
JAS-2 (FO-29)           
1 24278U 96046B   26187.82950257 -.00000018  00000+0  15885-4 0  9990
2 24278  98.5225  34.0093 0350676  45.6079 317.3214 13.53275038475827
TECHSAT 1B (GO-32)      
1 25397U 98043D   26187.94313304  .00000041  00000+0  37960-4 0  9994
2 25397  99.0077 181.2008 0001943 128.2186 231.9167 14.24432203454147
ISS (ZARYA)             
1 25544U 98067A   26188.50835633  .00005806  00000+0  11369-3 0  9999
2 25544  51.6304 199.5144 0006687 267.6545  92.3678 15.48933372574901
PCSAT (NO-44)           
1 26931U 01043C   26187.71597948  .00000106  00000+0  70598-4 0  9992
2 26931  67.0487 193.7609 0005989 265.9645  94.0772 14.31962724293246
SAUDISAT 1C (SO-50)     
1 27607U 02058C   26188.11499616  .00000749  00000+0  10582-3 0  9997
2 27607  64.5520  67.3282 0074752 258.7570 100.5128 14.83088031267416
CUTE-1 (CO-55)          
1 27844U 03031E   26188.47926413  .00000234  00000+0  12008-3 0  9995
2 27844  98.6738 196.7829 0010633 122.6531 237.5675 14.24348198194567
CUBESAT XI-IV (CO-57)   
1 27848U 03031J   26188.47791579  .00000195  00000+0  10456-3 0  9993
2 27848  98.6771 196.4779 0010210 139.6847 220.5090 14.23631593194261
MOZHAETS 4 (RS22)       
1 27939U 03042A   26188.52074782  .00000902  00000+0  14703-3 0  9997
2 27939  98.3478  13.4544 0010656 198.2557 246.5715 14.73506306218542
CUBESAT XI-V            
1 28895U 05043F   26187.90288029  .00001301  00000+0  21205-3 0  9993
2 28895  98.3006 343.9413 0014934 139.5987 220.6332 14.72686848104658
CUTE-1.7+APD II (CO-65) 
1 32785U 08021C   26188.46614924  .00003122  00000+0  19808-3 0  9993
2 32785  97.8289 170.3099 0007557 331.2407  28.8404 15.09654126988250
SEEDS II (CO-66)        
1 32791U 08021J   26187.97759588  .00013488  00000+0  41928-3 0  9995
2 32791  97.7526 186.8299 0002095 175.3299 184.7963 15.33467667990324
YUBILEINY (RS30)        
1 32953U 08025A   26188.45941294  .00000040  00000+0  21585-3 0  9997
2 32953  82.5058 342.8283 0018511 266.9478  92.9483 12.43180370822219
KKS-1 (KISEKI)          
1 33499U 09002H   26188.49612233  .00001151  00000+0  14779-3 0  9992
2 33499  98.1180 111.2602 0006827 216.2577 143.8174 14.83176447939209
SWISSCUBE               
1 35932U 09051B   26188.21471723  .00000862  00000+0  17976-3 0  9997
2 35932  98.4018  96.4508 0007414 140.7711 219.4029 14.62520493892083
BEESAT-1                
1 35933U 09051C   26187.68699793  .00000825  00000+0  17521-3 0  9992
2 35933  98.3946  95.5083 0005594 152.8546 207.2947 14.61752775892036
ITUPSAT1                
1 35935U 09051E   26187.96902507  .00000669  00000+0  14806-3 0  9994
2 35935  98.4029  94.9654 0007491 167.2439 192.8951 14.60470414891621
XIWANG-1 (HOPE-1)       
1 36122U 09072B   26188.53564681  .00000226  00000+0  70729-3 0  9992
2 36122 100.4036 142.0435 0007327 182.1552 177.9531 13.16440434795680
O/OREOS (USA 219)       
1 37224U 10062C   26188.01862281  .00001776  00000+0  17289-3 0  9990
2 37224  71.9708  35.4141 0013472  21.2567 338.9160 14.93830285119600
JUGNU                   
1 37839U 11058B   26188.05385066  .00000388  00000+0  62949-4 0  9995
2 37839  19.9587 187.7288 0018356 296.0601 101.0732 14.13781645761849
SRMSAT                  
1 37841U 11058D   26188.51395409  .00000364  00000+0  53720-4 0  9992
2 37841  19.9725 296.4406 0011879  67.5382  21.1361 14.11579854760693
STRAND-1                
1 39090U 13009E   26188.45511461  .00000234  00000+0  93038-4 0  9991
2 39090  98.3931   8.1913 0008963 162.7349 197.4144 14.37175624699976
ZACUBE-1 (TSHEPISOSAT)  
1 39417U 13066B   26188.46989733  .00001831  00000+0  14444-3 0  9996
2 39417  97.8022 150.9081 0043510 179.9834 180.1399 15.01305441683778
GOMX-1                  
1 39430U 13066Q   26188.47716836  .00001636  00000+0  25034-3 0  9994
2 39430  97.6474  27.6589 0128949  12.9864 347.4611 14.69530831672896
